NORAD_CAT_ID,OBJECT_NAME,OBJECT_TYPE,EPOCH,MEAN_MOTION,ECCENTRICITY,INCLINATION,RA_OF_ASC_NODE,ARG_OF_PERICENTER,MEAN_ANOMALY,BSTAR,MEAN_MOTION_DOT,MEAN_MOTION_DDOT,TLE_LINE0,TLE_LINE1,TLE_LINE2,SEMIMAJOR_AXIS,PERIOD,APOGEE,PERIGEE,DECAYED
55743.0,STARLINK-5602,PAYLOAD,2024-03-12 23:47:43,14.98331058,0.0003149,69.9972,276.8876,263.7601,96.32,9.2152e-05,1.007e-05,0.0,0 STARLINK-5602,1 55743U 23028C   24072.99147666  .00001007  00000-0  92152-4 0  9993,2 55743  69.9972 276.8876 0003149 263.7601  96.3200 14.98331058 57187,6950.19,96.107,574.243,569.866,0.0
55743.0,STARLINK-5602,PAYLOAD,2024-03-13 06:12:15,14.98330477,0.000312,69.9972,276.2142,264.6079,95.4724,7.8084e-05,8.39e-06,0.0,0 STARLINK-5602,1 55743U 23028C   24073.25851729  .00000839  00000-0  78084-4 0  9995,2 55743  69.9972 276.2142 0003120 264.6079  95.4724 14.98330477 57225,6950.191,96.107,574.225,569.888,0.0
55743.0,STARLINK-5602,PAYLOAD,2024-03-13 22:13:36,14.98332979,0.0003032,69.9968,274.5302,270.8736,89.2076,6.2711e-05,6.55e-06,0.0,0 STARLINK-5602,1 55743U 23028C   24073.92611592  .00000655  00000-0  62711-4 0  9997,2 55743  69.9968 274.5302 0003032 270.8736  89.2076 14.98332979 57321,6950.184,96.107,574.156,569.941,0.0
55743.0,STARLINK-5602,PAYLOAD,2024-03-13 23:49:44,14.98334577,0.0003033,69.9985,274.3622,271.7048,88.3764,8.0298e-05,8.65e-06,0.0,0 STARLINK-5602,1 55743U 23028C   24073.99287447  .00000865  00000-0  80298-4 0  9995,2 55743  69.9985 274.3622 0003033 271.7048  88.3764 14.98334577 57331,6950.179,96.107,574.152,569.936,0.0
55743.0,STARLINK-5602,PAYLOAD,2024-03-14 06:14:16,14.98334442,0.0003162,69.9983,273.6885,273.2287,86.851,1.6094e-05,9.9e-07,0.0,0 STARLINK-5602,1 55743U 23028C   24074.25991555  .00000099  00000-0  16094-4 0  9999,2 55743  69.9983 273.6885 0003162 273.2287  86.8510 14.98334442 57374,6950.179,96.107,574.242,569.847,0.0
55743.0,STARLINK-5602,PAYLOAD,2024-03-14 20:39:30,14.98315034,0.0003604,69.9973,272.173,270.2282,89.8464,-0.00015153,-1.9e-05,0.0,0 STARLINK-5602,1 55743U 23028C   24074.86077293 -.00001900  00000-0 -15153-3 0  9998,2 55743  69.9973 272.1730 0003604 270.2282  89.8464 14.98315034 57466,6950.239,96.108,574.609,569.599,0.0
55743.0,STARLINK-5602,PAYLOAD,2024-03-14 22:15:43,14.9825583,0.0003246,69.997,272.0047,301.6793,58.4049,-0.00080518,-9.669e-05,0.0,0 STARLINK-5602,1 55743U 23028C   24074.92758946 -.00009669  00000-0 -80518-3 0  9993,2 55743  69.9970 272.0047 0003246 301.6793  58.4049 14.98255830 57470,6950.422,96.112,574.543,570.031,0.0
55743.0,STARLINK-5602,PAYLOAD,2024-03-14 23:51:53,14.98240106,0.0003053,69.9992,271.8373,291.1026,68.9806,-0.00095838,-0.00011483,0.0,0 STARLINK-5602,1 55743U 23028C   24074.99436516 -.00011483  00000-0 -95838-3 0  9994,2 55743  69.9992 271.8373 0003053 291.1026  68.9806 14.98240106 57489,6950.471,96.113,574.458,570.214,0.0
55743.0,STARLINK-5602,PAYLOAD,2024-03-15 12:40:56,14.9827817,0.0002377,69.9996,270.4884,279.6558,80.4332,-0.00048329,-5.847e-05,0.0,0 STARLINK-5602,1 55743U 23028C   24075.52842971 -.00005847  00000-0 -48329-3 0  9990,2 55743  69.9996 270.4884 0002377 279.6558  80.4332 14.98278170 57568,6950.353,96.11,573.87,570.566,0.0
55743.0,STARLINK-5602,PAYLOAD,2024-03-15 22:17:41,14.98325949,0.0002305,69.9998,269.4813,269.3001,90.7894,0.00015288,1.731e-05,0.0,0 STARLINK-5602,1 55743U 23028C   24075.92894985  .00001731  00000-0  15288-3 0  9990,2 55743  69.9998 269.4813 0002305 269.3001  90.7894 14.98325949 57621,6950.205,96.107,573.672,570.468,0.0
55743.0,STARLINK-5602,PAYLOAD,2024-03-16 14:19:01,14.98324437,0.0003205,69.9987,267.7961,269.9417,90.1375,0.00031818,3.705e-05,0.0,0 STARLINK-5602,1 55743U 23028C   24076.59654834  .00003705  00000-0  31818-3 0  9991,2 55743  69.9987 267.7961 0003205 269.9417  90.1375 14.98324437 57721,6950.21,96.107,574.303,569.848,0.0
55743.0,STARLINK-5602,PAYLOAD,2024-03-16 20:43:34,14.98289686,0.0002692,69.9986,267.1267,292.6283,67.4591,0.0010075,0.00011936,0.0,0 STARLINK-5602,1 55743U 23028C   24076.86359518  .00011936  00000-0  10075-2 0  9998,2 55743  69.9986 267.1267 0002692 292.6283  67.4591 14.98289686 57763,6950.318,96.11,574.054,570.312,0.0
55743.0,STARLINK-5602,PAYLOAD,2024-03-16 22:19:42,14.98290427,0.0002762,69.9984,266.9581,291.7613,68.3252,0.0010014,0.00011863,0.0,0 STARLINK-5602,1 55743U 23028C   24076.93035679  .00011863  00000-0  10014-2 0  9997,2 55743  69.9984 266.9581 0002762 291.7613  68.3252 14.98290427 57772,6950.315,96.11,574.1,570.261,0.0
55743.0,STARLINK-5602,PAYLOAD,2024-03-17 12:44:54,14.98349277,0.0003105,69.9983,265.4406,269.8119,90.2684,0.00011415,1.27e-05,0.0,0 STARLINK-5602,1 55743U 23028C   24077.53118879  .00001270  00000-0  11415-3 0  9996,2 55743  69.9983 265.4406 0003105 269.8119  90.2684 14.98349277 57861,6950.133,96.106,574.156,569.84,0.0
55743.0,STARLINK-5602,PAYLOAD,2024-03-17 14:21:02,14.9834966,0.00031,69.9983,265.2721,269.8985,90.1819,0.00011735,1.308e-05,0.0,0 STARLINK-5602,1 55743U 23028C   24077.59794770  .00001308  00000-0  11735-3 0  9999,2 55743  69.9983 265.2721 0003100 269.8985  90.1819 14.98349660 57871,6950.132,96.106,574.152,569.843,0.0
55743.0,STARLINK-5602,PAYLOAD,2024-03-17 22:21:42,14.98352107,0.0003063,69.9985,264.4304,268.8158,91.265,0.00014094,1.59e-05,0.0,0 STARLINK-5602,1 55743U 23028C   24077.93174172  .00001590  00000-0  14094-3 0  9999,2 55743  69.9985 264.4304 0003063 268.8158  91.2650 14.98352107 57921,6950.125,96.106,574.118,569.861,0.0
55743.0,STARLINK-5602,PAYLOAD,2024-03-18 11:10:46,14.9835707,0.0003119,69.9984,263.0836,269.7682,90.312,0.00012647,1.417e-05,0.0,0 STARLINK-5602,1 55743U 23028C   24078.46581074  .00001417  00000-0  12647-3 0  9991,2 55743  69.9984 263.0836 0003119 269.7682  90.3120 14.98357070 58005,6950.109,96.105,574.142,569.806,0.0
55743.0,STARLINK-5602,PAYLOAD,2024-03-18 20:47:33,14.98360333,0.0003096,69.9985,262.0738,269.4299,90.6505,0.00015154,1.717e-05,0.0,0 STARLINK-5602,1 55743U 23028C   24078.86636110  .00001717  00000-0  15154-3 0  9996,2 55743  69.9985 262.0738 0003096 269.4299  90.6505 14.98360333 58063,6950.099,96.105,574.116,569.812,0.0
55743.0,STARLINK-5602,PAYLOAD,2024-03-18 22:23:41,14.98360874,0.0003095,69.9985,261.9055,269.4288,90.6516,0.00015608,1.771e-05,0.0,0 STARLINK-5602,1 55743U 23028C   24078.93311950  .00001771  00000-0  15608-3 0  9990,2 55743  69.9985 261.9055 0003095 269.4288  90.6516 14.98360874 58073,6950.097,96.105,574.113,569.811,0.0
55743.0,STARLINK-5602,PAYLOAD,2024-03-19 11:12:45,14.98353384,0.000291,69.9991,260.5603,266.0869,93.9958,3.1481e-05,2.83e-06,0.0,0 STARLINK-5602,1 55743U 23028C   24079.46719892  .00000283  00000-0  31481-4 0  9991,2 55743  69.9991 260.5603 0002910 266.0869  93.9958 14.98353384 58150,6950.121,96.105,574.008,569.963,0.0
55743.0,STARLINK-5602,PAYLOAD,2024-03-19 20:49:34,14.98350887,0.0002877,69.999,259.5493,267.3409,92.7421,2.1699e-06,-6.7e-07,0.0,0 STARLINK-5602,1 55743U 23028C   24079.86775516 -.00000067  00000-0  21699-5 0  9992,2 55743  69.9990 259.5493 0002877 267.3409  92.7421 14.98350887 58214,6950.128,96.106,573.993,569.994,0.0
55743.0,STARLINK-5602,PAYLOAD,2024-03-20 14:27:02,14.98348638,0.0002772,69.9997,257.6978,262.5965,97.4879,-0.00022458,-2.773e-05,0.0,0 STARLINK-5602,1 55743U 23028C   24080.60211381 -.00002773  00000-0 -22458-3 0  9990,2 55743  69.9997 257.6978 0002772 262.5965  97.4879 14.98348638 58328,6950.135,96.106,573.927,570.074,0.0
55743.0,STARLINK-5602,PAYLOAD,2024-03-20 20:51:35,14.98344718,0.0002467,69.9996,257.0248,260.1466,99.9414,-0.00029856,-3.655e-05,0.0,0 STARLINK-5602,1 55743U 23028C   24080.86915539 -.00003655  00000-0 -29856-3 0  9993,2 55743  69.9996 257.0248 0002467 260.1466  99.9414 14.98344718 58363,6950.147,96.106,573.727,570.298,0.0
55743.0,STARLINK-5602,PAYLOAD,2024-03-21 14:29:03,14.98335743,0.0002988,69.999,255.1726,266.8258,93.2559,-1.7641e-05,-3.04e-06,0.0,0 STARLINK-5602,1 55743U 23028C   24081.60351156 -.00000304  00000-0 -17641-4 0  9993,2 55743  69.9990 255.1726 0002988 266.8258  93.2559 14.98335743 58474,6950.175,96.107,574.117,569.963,0.0
55743.0,STARLINK-5602,PAYLOAD,2024-03-21 20:53:35,14.98340654,0.000305,69.9987,254.4988,268.5884,91.4925,3.6155e-05,3.39e-06,0.0,0 STARLINK-5602,1 55743U 23028C   24081.87054623  .00000339  00000-0  36155-4 0  9998,2 55743  69.9987 254.4988 0003050 268.5884  91.4925 14.98340654 58516,6950.16,96.106,574.145,569.905,0.0
55743.0,STARLINK-5602,PAYLOAD,2024-03-22 12:54:56,14.98331666,0.0003041,69.9989,252.8156,268.6028,91.4783,0.00010849,1.202e-05,0.0,0 STARLINK-5602,1 55743U 23028C   24082.53814847  .00001202  00000-0  10849-3 0  9995,2 55743  69.9989 252.8156 0003041 268.6028  91.4783 14.98331666 58614,6950.188,96.107,574.166,569.939,0.0
55743.0,STARLINK-5602,PAYLOAD,2024-03-22 14:31:04,14.98332525,0.0003028,69.9989,252.6472,268.2935,91.7877,0.0001176,1.311e-05,0.0,0 STARLINK-5602,1 55743U 23028C   24082.60490771  .00001311  00000-0  11760-3 0  9993,2 55743  69.9989 252.6472 0003028 268.2935  91.7877 14.98332525 58624,6950.185,96.107,574.155,569.946,0.0
55743.0,STARLINK-5602,PAYLOAD,2024-03-22 20:55:36,14.98335057,0.0003013,69.9991,251.974,268.3127,91.7687,0.00014061,1.585e-05,0.0,0 STARLINK-5602,1 55743U 23028C   24082.87194531  .00001585  00000-0  14061-3 0  9997,2 55743  69.9991 251.9740 0003013 268.3127  91.7687 14.98335057 58661,6950.177,96.107,574.136,569.948,0.0
55743.0,STARLINK-5602,PAYLOAD,2024-03-23 11:20:49,14.9833067,0.000275,70.0,250.4598,263.6448,96.4398,-0.00012417,-1.574e-05,0.0,0 STARLINK-5602,1 55743U 23028C   24083.47279628 -.00001574  00000-0 -12417-3 0  9998,2 55743  70.0000 250.4598 0002750 263.6448  96.4398 14.98330670 58758,6950.191,96.107,573.967,570.145,0.0
55743.0,STARLINK-5602,PAYLOAD,2024-03-23 20:57:37,14.9832681,0.0002806,69.9999,249.4502,268.055,92.0288,-2.9463e-05,-4.44e-06,0.0,0 STARLINK-5602,1 55743U 23028C   24083.87335622 -.00000444  00000-0 -29463-4 0  9994,2 55743  69.9999 249.4502 0002806 268.0550  92.0288 14.98326810 58818,6950.203,96.107,574.018,570.118,0.0
